CTC1_L_00565001-01
1 10000U 24001JE  26075.70038194  .00000000  00000+0  00000-0 0  9999
2 10000  98.2000   0.0000 0000000   0.0000   0.0000 14.57888518    18
CTC1_L_00565001-02
1 10001U 25508XN  26075.70038194  .00000000  00000+0  00000-0 0  9993
2 10001  98.2000   0.0000 0000000   0.0000 180.0000 14.57888518    18
CTC1_L_00565002-01
1 10002U 24746LF  26075.70038194  .00000000  00000+0  00000-0 0  9997
2 10002  98.2000   3.0000 0000000   0.0000   6.0000 14.57888518    19
CTC1_L_00565002-02
1 10003U 26631QL  26075.70038194  .00000000  00000+0  00000-0 0  9993
2 10003  98.2000   3.0000 0000000   0.0000 186.0000 14.57888518    19
CTC1_L_00565003-01
1 10004U 22814MX  26075.70038194  .00000000  00000+0  00000-0 0  9993
2 10004  98.2000   6.0000 0000000   0.0000  12.0000 14.57888518    11
CTC1_L_00565003-02
1 10005U 23082JT  26075.70038194  .00000000  00000+0  00000-0 0  9992
2 10005  98.2000   6.0000 0000000   0.0000 192.0000 14.57888518    11
CTC1_L_00565004-01
1 10006U 25252ZB  26075.70038194  .00000000  00000+0  00000-0 0  9994
2 10006  98.2000   9.0000 0000000   0.0000  18.0000 14.57888518    12
CTC1_L_00565004-02
1 10007U 22253U   26075.70038194  .00000000  00000+0  00000-0 0  9993
2 10007  98.2000   9.0000 0000000   0.0000 198.0000 14.57888518    12
CTC1_L_00565005-01
1 10008U 23787VX  26075.70038194  .00000000  00000+0  00000-0 0  9997
2 10008  98.2000  12.0000 0000000   0.0000  24.0000 14.57888518    15
CTC1_L_00565005-02
1 10009U 24137SD  26075.70038194  .00000000  00000+0  00000-0 0  9998
2 10009  98.2000  12.0000 0000000   0.0000 204.0000 14.57888518    16
CTC1_L_00565006-01
1 10010U 25452KV  26075.70038194  .00000000  00000+0  00000-0 0  9991
2 10010  98.2000  15.0000 0000000   0.0000  30.0000 14.57888518    18
CTC1_L_00565006-02
1 10011U 23494FZ  26075.70038194  .00000000  00000+0  00000-0 0  9996
2 10011  98.2000  15.0000 0000000   0.0000 210.0000 14.57888518    19
CTC1_L_00565007-01
1 10012U 22280OM  26075.70038194  .00000000  00000+0  00000-0 0  9999
2 10012  98.2000  18.0000 0000000   0.0000  36.0000 14.57888518    19
CTC1_L_00565007-02
1 10013U 26653YG  26075.70038194  .00000000  00000+0  00000-0 0  9998
2 10013  98.2000  18.0000 0000000   0.0000 216.0000 14.57888518    10
CTC1_L_00565008-01
1 10014U 23968HY  26075.70038194  .00000000  00000+0  00000-0 0  9995
2 10014  98.2000  21.0000 0000000   0.0000  42.0000 14.57888518    12
CTC1_L_00565008-02
1 10015U 24279SG  26075.70038194  .00000000  00000+0  00000-0 0  9992
2 10015  98.2000  21.0000 0000000   0.0000 222.0000 14.57888518    13
CTC1_L_00565009-01
1 10016U 25668QR  26075.70038194  .00000000  00000+0  00000-0 0  9996
2 10016  98.2000  24.0000 0000000   0.0000  48.0000 14.57888518    13
CTC1_L_00565009-02
1 10017U 22942BD  26075.70038194  .00000000  00000+0  00000-0 0  9999
2 10017  98.2000  24.0000 0000000   0.0000 228.0000 14.57888518    14
CTC1_L_00565010-01
1 10018U 23551LU  26075.70038194  .00000000  00000+0  00000-0 0  9997
2 10018  98.2000  27.0000 0000000   0.0000  54.0000 14.57888518    15
CTC1_L_00565010-02
1 10019U 22967LZ  26075.70038194  .00000000  00000+0  00000-0 0  9998
2 10019  98.2000  27.0000 0000000   0.0000 234.0000 14.57888518    16
CTC1_L_00565011-01
1 10020U 24260NP  26075.70038194  .00000000  00000+0  00000-0 0  9998
2 10020  98.2000  30.0000 0000000   0.0000  60.0000 14.57888518    19
CTC1_L_00565011-02
1 10021U 24532XG  26075.70038194  .00000000  00000+0  00000-0 0  9991
2 10021  98.2000  30.0000 0000000   0.0000 240.0000 14.57888518    10
CTC1_L_00565012-01
1 10022U 23236RA  26075.70038194  .00000000  00000+0  00000-0 0  9992
2 10022  98.2000  33.0000 0000000   0.0000  66.0000 14.57888518    10
CTC1_L_00565012-02
1 10023U 23173TH  26075.70038194  .00000000  00000+0  00000-0 0  9993
2 10023  98.2000  33.0000 0000000   0.0000 246.0000 14.57888518    11
CTC1_L_00565013-01
1 10024U 22887BT  26075.70038194  .00000000  00000+0  00000-0 0  9995
2 10024  98.2000  36.0000 0000000   0.0000  72.0000 14.57888518    12
CTC1_L_00565013-02
1 10025U 22619KB  26075.70038194  .00000000  00000+0  00000-0 0  9999
2 10025  98.2000  36.0000 0000000   0.0000 252.0000 14.57888518    13
CTC1_L_00565014-01
1 10026U 23971CG  26075.70038194  .00000000  00000+0  00000-0 0  9992
2 10026  98.2000  39.0000 0000000   0.0000  78.0000 14.57888518    13
CTC1_L_00565014-02
1 10027U 23504BU  26075.70038194  .00000000  00000+0  00000-0 0  9995
2 10027  98.2000  39.0000 0000000   0.0000 258.0000 14.57888518    14
CTC1_L_00565015-01
1 10028U 25069EM  26075.70038194  .00000000  00000+0  00000-0 0  9994
2 10028  98.2000  42.0000 0000000   0.0000  84.0000 14.57888518    16
CTC1_L_00565015-02
1 10029U 23832UN  26075.70038194  .00000000  00000+0  00000-0 0  9991
2 10029  98.2000  42.0000 0000000   0.0000 264.0000 14.57888518    17
CTC1_L_00565016-01
1 10030U 24166CZ  26075.70038194  .00000000  00000+0  00000-0 0  9994
2 10030  98.2000  45.0000 0000000   0.0000  90.0000 14.57888518    19
CTC1_L_00565016-02
1 10031U 24766VP  26075.70038194  .00000000  00000+0  00000-0 0  9991
2 10031  98.2000  45.0000 0000000   0.0000 270.0000 14.57888518    10
CTC1_L_00565017-01
1 10032U 23972NQ  26075.70038194  .00000000  00000+0  00000-0 0  9990
2 10032  98.2000  48.0000 0000000   0.0000  96.0000 14.57888518    10
CTC1_L_00565017-02
1 10033U 22673DD  26075.70038194  .00000000  00000+0  00000-0 0  9998
2 10033  98.2000  48.0000 0000000   0.0000 276.0000 14.57888518    11
CTC1_L_00565018-01
1 10034U 23213LZ  26075.70038194  .00000000  00000+0  00000-0 0  9990
2 10034  98.2000  51.0000 0000000   0.0000 102.0000 14.57888518    14
CTC1_L_00565018-02
1 10035U 26698OG  26075.70038194  .00000000  00000+0  00000-0 0  9991
2 10035  98.2000  51.0000 0000000   0.0000 282.0000 14.57888518    14
CTC1_L_00565019-01
1 10036U 26173YC  26075.70038194  .00000000  00000+0  00000-0 0  9990
2 10036  98.2000  54.0000 0000000   0.0000 108.0000 14.57888518    15
CTC1_L_00565019-02
1 10037U 24780GX  26075.70038194  .00000000  00000+0  00000-0 0  9993
2 10037  98.2000  54.0000 0000000   0.0000 288.0000 14.57888518    15
CTC1_L_00565020-01
1 10038U 22782KH  26075.70038194  .00000000  00000+0  00000-0 0  9994
2 10038  98.2000  57.0000 0000000   0.0000 114.0000 14.57888518    17
CTC1_L_00565020-02
1 10039U 25920JE  26075.70038194  .00000000  00000+0  00000-0 0  9992
2 10039  98.2000  57.0000 0000000   0.0000 294.0000 14.57888518    17
CTC1_L_00565021-01
1 10040U 25052ZD  26075.70038194  .00000000  00000+0  00000-0 0  9990
2 10040  98.2000  60.0000 0000000   0.0000 120.0000 14.57888518    11
CTC1_L_00565021-02
1 10041U 25963JO  26075.70038194  .00000000  00000+0  00000-0 0  9992
2 10041  98.2000  60.0000 0000000   0.0000 300.0000 14.57888518    12
CTC1_L_00565022-01
1 10042U 26905MD  26075.70038194  .00000000  00000+0  00000-0 0  9990
2 10042  98.2000  63.0000 0000000   0.0000 126.0000 14.57888518    12
CTC1_L_00565022-02
1 10043U 24424ON  26075.70038194  .00000000  00000+0  00000-0 0  9995
2 10043  98.2000  63.0000 0000000   0.0000 306.0000 14.57888518    13
CTC1_L_00565023-01
1 10044U 24227WC  26075.70038194  .00000000  00000+0  00000-0 0  9997
2 10044  98.2000  66.0000 0000000   0.0000 132.0000 14.57888518    14
CTC1_L_00565023-02
1 10045U 24808WG  26075.70038194  .00000000  00000+0  00000-0 0  9993
2 10045  98.2000  66.0000 0000000   0.0000 312.0000 14.57888518    15
CTC1_L_00565024-01
1 10046U 22165XM  26075.70038194  .00000000  00000+0  00000-0 0  9998
2 10046  98.2000  69.0000 0000000   0.0000 138.0000 14.57888518    15
CTC1_L_00565024-02
1 10047U 26637HN  26075.70038194  .00000000  00000+0  00000-0 0  9997
2 10047  98.2000  69.0000 0000000   0.0000 318.0000 14.57888518    16
CTC1_L_00565025-01
1 10048U 22754DH  26075.70038194  .00000000  00000+0  00000-0 0  9994
2 10048  98.2000  72.0000 0000000   0.0000 144.0000 14.57888518    18
CTC1_L_00565025-02
1 10049U 24185FR  26075.70038194  .00000000  00000+0  00000-0 0  9995
2 10049  98.2000  72.0000 0000000   0.0000 324.0000 14.57888518    19
CTC1_L_00565026-01
1 10050U 22050EX  26075.70038194  .00000000  00000+0  00000-0 0  9996
2 10050  98.2000  75.0000 0000000   0.0000 150.0000 14.57888518    11
CTC1_L_00565026-02
1 10051U 22040NG  26075.70038194  .00000000  00000+0  00000-0 0  9996
2 10051  98.2000  75.0000 0000000   0.0000 330.0000 14.57888518    12
CTC1_L_00565027-01
1 10052U 23541YN  26075.70038194  .00000000  00000+0  00000-0 0  9994
2 10052  98.2000  78.0000 0000000   0.0000 156.0000 14.57888518    12
CTC1_L_00565027-02
1 10053U 23765KE  26075.70038194  .00000000  00000+0  00000-0 0  9993
2 10053  98.2000  78.0000 0000000   0.0000 336.0000 14.57888518    13
CTC1_L_00565028-01
1 10054U 25814HN  26075.70038194  .00000000  00000+0  00000-0 0  9991
2 10054  98.2000  81.0000 0000000   0.0000 162.0000 14.57888518    15
CTC1_L_00565028-02
1 10055U 25037NW  26075.70038194  .00000000  00000+0  00000-0 0  9999
2 10055  98.2000  81.0000 0000000   0.0000 342.0000 14.57888518    16
CTC1_L_00565029-01
1 10056U 26935I   26075.70038194  .00000000  00000+0  00000-0 0  9998
2 10056  98.2000  84.0000 0000000   0.0000 168.0000 14.57888518    16
CTC1_L_00565029-02
1 10057U 26378CL  26075.70038194  .00000000  00000+0  00000-0 0  9990
2 10057  98.2000  84.0000 0000000   0.0000 348.0000 14.57888518    17
CTC1_L_00565030-01
1 10058U 23429VE  26075.70038194  .00000000  00000+0  00000-0 0  9995
2 10058  98.2000  87.0000 0000000   0.0000 174.0000 14.57888518    18
CTC1_L_00565030-02
1 10059U 22762CM  26075.70038194  .00000000  00000+0  00000-0 0  9995
2 10059  98.2000  87.0000 0000000   0.0000 354.0000 14.57888518    19
CTC1_L_00565031-01
1 10060U 23332TF  26075.70038194  .00000000  00000+0  00000-0 0  9991
2 10060  98.2000  90.0000 0000000   0.0000 180.0000 14.57888518    12
CTC1_L_00565031-02
1 10061U 23314HI  26075.70038194  .00000000  00000+0  00000-0 0  9992
2 10061  98.2000  90.0000 0000000   0.0000   0.0000 14.57888518    14
